NORAD_CAT_ID,OBJECT_NAME,OBJECT_TYPE,EPOCH,MEAN_MOTION,ECCENTRICITY,INCLINATION,RA_OF_ASC_NODE,ARG_OF_PERICENTER,MEAN_ANOMALY,BSTAR,MEAN_MOTION_DOT,MEAN_MOTION_DDOT,TLE_LINE0,TLE_LINE1,TLE_LINE2,SEMIMAJOR_AXIS,PERIOD,APOGEE,PERIGEE,DECAYED
50830.0,STARLINK-3278,PAYLOAD,2022-07-09 03:26:41,15.08863737,0.0002588,53.2184,72.5757,60.2407,299.8843,0.00031449,4.724e-05,0.0,0 STARLINK-3278,1 50830U 22001AD  22190.14353312  .00004724  00000-0  31449-3 0  9998,2 50830  53.2184  72.5757 0002588  60.2407 299.8843 15.08863737 29312,6917.808000000001,95.436,541.4630000000002,537.883,0.0
50830.0,STARLINK-3278,PAYLOAD,2022-07-09 09:48:13,15.08860098,0.0002593,53.2186,71.3857,60.7146,299.4105,0.0001102,1.467e-05,0.0,0 STARLINK-3278,1 50830U 22001AD  22190.40849025  .00001467  00000-0  11020-3 0  9992,2 50830  53.2186  71.3857 0002593  60.7146 299.4105 15.08860098 28080,6917.819,95.436,541.4780000000002,537.89,0.0
50830.0,STARLINK-3278,PAYLOAD,2022-07-10 01:42:06,15.08811586,0.0002249,53.2191,68.4134,56.6648,303.4559,-0.00075651,-0.00012299,0.0,0 STARLINK-3278,1 50830U 22001AD  22191.07090747 -.00012299  00000-0 -75651-3 0  9992,2 50830  53.2191  68.4134 0002249  56.6648 303.4559 15.08811586 29459,6917.967,95.439,541.388,538.276,0.0
50830.0,STARLINK-3278,PAYLOAD,2022-07-11 03:08:17,15.08832001,0.0002272,53.2193,63.6548,56.8082,303.3128,4.7822e-05,4.73e-06,0.0,0 STARLINK-3278,1 50830U 22001AD  22192.13075793  .00000473  00000-0  47822-4 0  9993,2 50830  53.2193  63.6548 0002272  56.8082 303.3128 15.08832001 29611,6917.905,95.438,541.342,538.198,0.0
50830.0,STARLINK-3278,PAYLOAD,2022-07-11 20:37:32,15.08848918,0.0002043,53.2192,60.3853,51.9496,308.168,0.00087535,0.00013674,0.0,0 STARLINK-3278,1 50830U 22001AD  22192.85940390  .00013674  00000-0  87535-3 0  9997,2 50830  53.2192  60.3853 0002043  51.9496 308.1680 15.08848918 28455,6917.853,95.437,541.131,538.305,0.0
50830.0,STARLINK-3278,PAYLOAD,2022-07-12 02:59:04,15.088677800000005,0.0001984,53.2191,59.19600000000001,50.3777,309.7390000000001,0.0011927,0.00018759,0.0,0 STARLINK-3278,1 50830U 22001AD  22193.12435916  .00018759  00000-0  11927-2 0  9991,2 50830  53.2191  59.1960 0001984  50.3777 309.7390 15.08867780 29765,6917.795,95.436,541.033,538.288,0.0
50830.0,STARLINK-3278,PAYLOAD,2022-07-12 07:45:13,15.08871259,0.0001999,53.2192,58.3037,50.5291,309.5878,0.0010927,0.0001716,0.0,0 STARLINK-3278,1 50830U 22001AD  22193.32307590  .00017160  00000-0  10927-2 0  9993,2 50830  53.2192  58.3037 0001999  50.5291 309.5878 15.08871259 28529,6917.785,95.436,541.033,538.2669999999998,0.0
50830.0,STARLINK-3278,PAYLOAD,2022-07-12 20:28:18,15.08856335,0.0001984,53.219,55.9255,52.0725,308.0446,0.00026842,3.988e-05,0.0,0 STARLINK-3278,1 50830U 22001AD  22193.85299245  .00003988  00000-0  26842-3 0  9995,2 50830  53.2190  55.9255 0001984  52.0725 308.0446 15.08856335 29877,6917.83,95.437,541.068,538.323,0.0
50830.0,STARLINK-3278,PAYLOAD,2022-07-13 07:35:59,15.08865714,0.0001988,53.219,53.8438,52.024,308.0931,0.00033855,5.108e-05,0.0,0 STARLINK-3278,1 50830U 22001AD  22194.31666340  .00005108  00000-0  33855-3 0  9999,2 50830  53.2190  53.8438 0001988  52.0240 308.0931 15.08865714 28670,6917.802,95.436,541.0419999999998,538.2919999999998,0.0
50830.0,STARLINK-3278,PAYLOAD,2022-07-13 20:19:04,15.08847316,0.0001744,53.2189,51.4651,49.529,310.5854,-0.00011474,-2.114e-05,0.0,0 STARLINK-3278,1 50830U 22001AD  22194.84658401 -.00002114  00000-0 -11474-3 0  9995,2 50830  53.2189  51.4651 0001744  49.5290 310.5854 15.08847316 30027,6917.858,95.437,540.93,538.5169999999998,0.0
50830.0,STARLINK-3278,PAYLOAD,2022-07-14 07:26:47,15.08829831,0.0001792,53.2189,49.3826,50.2994,309.8156,-0.00033649,-5.638e-05,0.0,0 STARLINK-3278,1 50830U 22001AD  22195.31027272 -.00005638  00000-0 -33649-3 0  9996,2 50830  53.2189  49.3826 0001792  50.2994 309.8156 15.08829831 30095,6917.911,95.438,541.016,538.5369999999998,0.0
50830.0,STARLINK-3278,PAYLOAD,2022-07-14 20:09:52,15.08836773,0.0001907,53.219,47.0038,50.2373,309.8787,-5.0974e-05,-1.099e-05,0.0,0 STARLINK-3278,1 50830U 22001AD  22195.84019553 -.00001099  00000-0 -50974-4 0  9995,2 50830  53.2190  47.0038 0001907  50.2373 309.8787 15.08836773 28906,6917.89,95.438,541.0740000000002,538.436,0.0
50830.0,STARLINK-3278,PAYLOAD,2022-07-15 00:56:02,15.08837613,0.0001874,53.2186,46.1119,49.8276,310.288,9.3774e-05,1.205e-05,0.0,0 STARLINK-3278,1 50830U 22001AD  22196.03891572  .00001205  00000-0  93774-4 0  9998,2 50830  53.2186  46.1119 0001874  49.8276 310.2880 15.08837613 30200,6917.888000000001,95.438,541.049,538.456,0.0
50830.0,STARLINK-3278,PAYLOAD,2022-07-15 13:39:07,15.08842242,0.0001851,53.2182,43.733,50.0372,310.0782,0.0006513999999999,0.00010095,0.0,0 STARLINK-3278,1 50830U 22001AD  22196.56883999  .00010095  00000-0  65140-3 0  9992,2 50830  53.2182  43.7330 0001851  50.0372 310.0782 15.08842242 29010,6917.874,95.437,541.019,538.4580000000002,0.0
50830.0,STARLINK-3278,PAYLOAD,2022-07-15 20:00:40,15.08850875,0.0001884,53.2182,42.5435,50.0974,310.0184,0.0007282,0.00011324,0.0,0 STARLINK-3278,1 50830U 22001AD  22196.83379785  .00011324  00000-0  72820-3 0  9994,2 50830  53.2182  42.5435 0001884  50.0974 310.0184 15.08850875 29058,6917.847,95.437,541.015,538.409,0.0
50830.0,STARLINK-3278,PAYLOAD,2022-07-16 00:46:49,15.08860394,0.0001898,53.2182,41.6514,49.9447,310.1712,0.00090041,0.00014079,0.0,0 STARLINK-3278,1 50830U 22001AD  22197.03251519  .00014079  00000-0  90041-3 0  9996,2 50830  53.2182  41.6514 0001898  49.9447 310.1712 15.08860394 30353,6917.818,95.436,540.996,538.37,0.0
50830.0,STARLINK-3278,PAYLOAD,2022-07-16 07:08:22,15.08851564,0.0002224,53.2181,40.4612,54.1287,305.9912,0.00047466,7.277e-05,0.0,0 STARLINK-3278,1 50830U 22001AD  22197.29747693  .00007277  00000-0  47466-3 0  9992,2 50830  53.2181  40.4612 0002224  54.1287 305.9912 15.08851564 30399,6917.845,95.437,541.249,538.172,0.0
50830.0,STARLINK-3278,PAYLOAD,2022-07-16 13:29:54,15.08858615,0.0001873,53.2183,39.2723,51.0206,309.0953,0.00061107,9.455e-05,0.0,0 STARLINK-3278,1 50830U 22001AD  22197.56243292  .00009455  00000-0  61107-3 0  9996,2 50830  53.2183  39.2723 0001873  51.0206 309.0953 15.08858615 29163,6917.823,95.436,540.984,538.393,0.0
50830.0,STARLINK-3278,PAYLOAD,2022-07-16 19:51:26,15.08852112,0.0001955,53.219,38.0835,45.2879,314.8273,0.00030251,4.531e-05,0.0,0 STARLINK-3278,1 50830U 22001AD  22197.82739219  .00004531  00000-0  30251-3 0  9990,2 50830  53.2190  38.0835 0001955  45.2879 314.8273 15.08852112 29204,6917.843000000003,95.437,541.061,538.356,0.0
50830.0,STARLINK-3278,PAYLOAD,2022-07-16 23:02:13,15.08846959,0.000185,53.2185,37.4882,48.0761,312.0389,0.00015726,2.216e-05,0.0,0 STARLINK-3278,1 50830U 22001AD  22197.95987287  .00002216  00000-0  15726-3 0  9992,2 50830  53.2185  37.4882 0001850  48.0761 312.0389 15.08846959 30491,6917.859,95.437,541.004,538.444,0.0
50830.0,STARLINK-3278,PAYLOAD,2022-07-17 13:20:41,15.08849399,0.000193,53.2194,34.8125,52.8466,307.2702,0.00025913,3.839e-05,0.0,0 STARLINK-3278,1 50830U 22001AD  22198.55603181  .00003839  00000-0  25913-3 0  9998,2 50830  53.2194  34.8125 0001930  52.8466 307.2702 15.08849399 29311,6917.852,95.437,541.052,538.382,0.0
50830.0,STARLINK-3278,PAYLOAD,2022-07-17 19:42:13,15.08839474,0.000191,53.2192,33.6227,49.7674,310.3485,5.8201e-05,6.38e-06,0.0,0 STARLINK-3278,1 50830U 22001AD  22198.82099443  .00000638  00000-0  58201-4 0  9999,2 50830  53.2192  33.6227 0001910  49.7674 310.3485 15.08839474 30625,6917.882,95.438,541.068,538.4259999999998,0.0
50830.0,STARLINK-3278,PAYLOAD,2022-07-17 22:53:00,15.08839294,0.0001969,53.2194,33.028,47.4979,312.618,0.00014911,2.086e-05,0.0,0 STARLINK-3278,1 50830U 22001AD  22198.95347413  .00002086  00000-0  14911-3 0  9994,2 50830  53.2194  33.0280 0001969  47.4979 312.6180 15.08839294 29374,6917.8830000000025,95.438,541.11,538.385,0.0
50830.0,STARLINK-3278,PAYLOAD,2022-07-18 19:33:01,15.08843242,0.0001975,53.2198,29.1628,54.8462,305.2715,6.5533e-05,7.55e-06,0.0,0 STARLINK-3278,1 50830U 22001AD  22199.81459527  .00000755  00000-0  65533-4 0  9998,2 50830  53.2198  29.1628 0001975  54.8462 305.2715 15.08843242 29501,6917.87,95.437,541.102,538.369,0.0
50830.0,STARLINK-3278,PAYLOAD,2022-07-19 05:05:19,15.08853148,0.0001919,53.2195,27.377,46.3881,313.7270000000001,-0.00010426,-1.948e-05,0.0,0 STARLINK-3278,1 50830U 22001AD  22200.21202806 -.00001948  00000-0 -10426-3 0  9998,2 50830  53.2195  27.3770 0001919  46.3881 313.7270 15.08853148 30839,6917.84,95.437,541.033,538.378,0.0
50830.0,STARLINK-3278,PAYLOAD,2022-07-19 19:23:47,15.08849093,0.0001826,53.2201,24.7033,51.2653,308.8503,0.00028408,4.237e-05,0.0,0 STARLINK-3278,1 50830U 22001AD  22200.80819251  .00004237  00000-0  28408-3 0  9992,2 50830  53.2201  24.7033 0001826  51.2653 308.8503 15.08849093 30927,6917.853,95.437,540.981,538.4540000000002,0.0
50830.0,STARLINK-3278,PAYLOAD,2022-07-19 20:59:10,15.08851218,0.0001819,53.2199,24.4056,50.4663,309.649,0.00030976,4.647e-05,0.0,0 STARLINK-3278,1 50830U 22001AD  22200.87443174  .00004647  00000-0  30976-3 0  9994,2 50830  53.2199  24.4056 0001819  50.4663 309.6490 15.08851218 29664,6917.846,95.437,540.969,538.453,0.0
50830.0,STARLINK-3278,PAYLOAD,2022-07-20 11:17:39,15.08846066,0.000196,53.2198,21.7271,45.7929,314.3224,6.2085e-05,7.000000000000003e-06,0.0,0 STARLINK-3278,1 50830U 22001AD  22201.47059074  .00000700  00000-0  62085-4 0  9996,2 50830  53.2198  21.7271 0001960  45.7929 314.3224 15.08846066 31027,6917.861999999999,95.437,541.0830000000002,538.371,0.0
50830.0,STARLINK-3278,PAYLOAD,2022-07-20 19:14:35,15.0883842,0.0001717,53.2199,20.2414,45.3727,314.7405,-5.9125e-06,-3.82e-06,0.0,0 STARLINK-3278,1 50830U 22001AD  22201.80179806 -.00000382  00000-0 -59125-5 0  9999,2 50830  53.2199  20.2414 0001717  45.3727 314.7405 15.08838420 31078,6917.885,95.438,540.938,538.562,0.0
